[{"OBJECT_NAME":"STARLINK-31965","OBJECT_ID":"2024-100D","EPOCH":"2026-03-09T05:23:43.313568","MEAN_MOTION":15.27607133,"ECCENTRICITY":0.00018194,"INCLINATION":43.0016,"RA_OF_ASC_NODE":128.2074,"ARG_OF_PERICENTER":279.596,"MEAN_ANOMALY":80.4686,"EPHEMERIS_TYPE":0,"CLASSIFICATION_TYPE":"U","NORAD_CAT_ID":59888,"ELEMENT_SET_NO":999,"REV_AT_EPOCH":10098,"BSTAR":0.00078938859,"MEAN_MOTION_DOT":0.00021542,"MEAN_MOTION_DDOT":0},{"OBJECT_NAME":"CZ-2C R\/B","OBJECT_ID":"2017-085D","EPOCH":"2026-03-09T07:36:19.955232","MEAN_MOTION":15.36259494,"ECCENTRICITY":0.00550258,"INCLINATION":34.6583,"RA_OF_ASC_NODE":163.0948,"ARG_OF_PERICENTER":204.4819,"MEAN_ANOMALY":155.3278,"EPHEMERIS_TYPE":0,"CLASSIFICATION_TYPE":"U","NORAD_CAT_ID":43084,"ELEMENT_SET_NO":999,"REV_AT_EPOCH":45326,"BSTAR":0.00049058122,"MEAN_MOTION_DOT":0.00018774,"MEAN_MOTION_DDOT":0}]
